[
    {
        "Altitude(m)": 565970.5840894989,
        "Argument of Periapsis(deg)": -0.022603160782972403,
        "Eccentricity": 0.0,
        "Inclination(deg)": 97.0,
        "Latitude(deg)": 4.4677632989016365,
        "Longitude(deg)": 17.10847099389183,
        "Mean Anomaly(deg)": 4.617643269187478,
        "RAAN(deg)": 120.0059470536185,
        "Satellite Name": "Starlink Shell 3 1869",
        "Satellite Number": 1869,
        "Semi-Major Axis(m)": 6938478.169268562,
        "Time(s)": 570
    },
    {
        "Altitude(m)": 565922.5729471022,
        "Argument of Periapsis(deg)": -0.02299970746337543,
        "Eccentricity": 0.0,
        "Inclination(deg)": 97.0,
        "Latitude(deg)": 5.092182367247054,
        "Longitude(deg)": 16.99000552668758,
        "Mean Anomaly(deg)": 5.243119466892473,
        "RAAN(deg)": 120.00605138789251,
        "Satellite Name": "Starlink Shell 3 1869",
        "Satellite Number": 1869,
        "Semi-Major Axis(m)": 6938478.169268562,
        "Time(s)": 580
    },
    {
        "Altitude(m)": 565878.8697872701,
        "Argument of Periapsis(deg)": -0.023396254143778456,
        "Eccentricity": 0.0,
        "Inclination(deg)": 97.0,
        "Latitude(deg)": 5.716591578753878,
        "Longitude(deg)": 16.871391028195166,
        "Mean Anomaly(deg)": 5.86859566459757,
        "RAAN(deg)": 120.00615572216651,
        "Satellite Name": "Starlink Shell 3 1869",
        "Satellite Number": 1869,
        "Semi-Major Axis(m)": 6938478.169268562,
        "Time(s)": 590
    },
    {
        "Altitude(m)": 565839.4666089499,
        "Argument of Periapsis(deg)": -0.023792800824181483,
        "Eccentricity": 0.0,
        "Inclination(deg)": 97.0,
        "Latitude(deg)": 6.340987913820113,
        "Longitude(deg)": 16.75260879606662,
        "Mean Anomaly(deg)": 6.494071862302692,
        "RAAN(deg)": 120.00626005644054,
        "Satellite Name": "Starlink Shell 3 1869",
        "Satellite Number": 1869,
        "Semi-Major Axis(m)": 6938478.169268562,
        "Time(s)": 600
    },
    {
        "Altitude(m)": 565804.3533603532,
        "Argument of Periapsis(deg)": -0.024189347504584503,
        "Eccentricity": 0.0,
        "Inclination(deg)": 97.0,
        "Latitude(deg)": 6.965368349633876,
        "Longitude(deg)": 16.633639968762115,
        "Mean Anomaly(deg)": 7.119548060007687,
        "RAAN(deg)": 120.00636439071454,
        "Satellite Name": "Starlink Shell 3 1869",
        "Satellite Number": 1869,
        "Semi-Major Axis(m)": 6938478.169268562,
        "Time(s)": 610
    },
    {
        "Altitude(m)": 565773.5179474112,
        "Argument of Periapsis(deg)": -0.02458589418498753,
        "Eccentricity": 0.0,
        "Inclination(deg)": 97.0,
        "Latitude(deg)": 7.5897298599872025,
        "Longitude(deg)": 16.51446601157287,
        "Mean Anomaly(deg)": 7.745024257712707,
        "RAAN(deg)": 120.00646872498855,
        "Satellite Name": "Starlink Shell 3 1869",
        "Satellite Number": 1869,
        "Semi-Major Axis(m)": 6938478.169268562,
        "Time(s)": 620
    },
    {
        "Altitude(m)": 565746.9462432583,
        "Argument of Periapsis(deg)": -0.024982440865390556,
        "Eccentricity": 0.0,
        "Inclination(deg)": 97.0,
        "Latitude(deg)": 8.214069415059372,
        "Longitude(deg)": 16.395067521316342,
        "Mean Anomaly(deg)": 8.370500455417702,
        "RAAN(deg)": 120.00657305926255,
        "Satellite Name": "Starlink Shell 3 1869",
        "Satellite Number": 1869,
        "Semi-Major Axis(m)": 6938478.169268562,
        "Time(s)": 630
    },
    {
        "Altitude(m)": 565724.622098792,
        "Argument of Periapsis(deg)": -0.025378987545793576,
        "Eccentricity": 0.0,
        "Inclination(deg)": 97.0,
        "Latitude(deg)": 8.838383981175427,
        "Longitude(deg)": 16.275425552089935,
        "Mean Anomaly(deg)": 8.9959766531228,
        "RAAN(deg)": 120.00667739353658,
        "Satellite Name": "Starlink Shell 3 1869",
        "Satellite Number": 1869,
        "Semi-Major Axis(m)": 6938478.169268562,
        "Time(s)": 640
    },
    {
        "Altitude(m)": 565706.527354191,
        "Argument of Periapsis(deg)": -0.025775534226196602,
        "Eccentricity": 0.0,
        "Inclination(deg)": 97.0,
        "Latitude(deg)": 9.462670520526618,
        "Longitude(deg)": 16.15552041913094,
        "Mean Anomaly(deg)": 9.621452850827845,
        "RAAN(deg)": 120.00678172781056,
        "Satellite Name": "Starlink Shell 3 1869",
        "Satellite Number": 1869,
        "Semi-Major Axis(m)": 6938478.169268562,
        "Time(s)": 650
    },
    {
        "Altitude(m)": 565692.6418514831,
        "Argument of Periapsis(deg)": -0.026172080906599626,
        "Eccentricity": 0.0,
        "Inclination(deg)": 97.0,
        "Latitude(deg)": 10.086925990858747,
        "Longitude(deg)": 16.035332183167352,
        "Mean Anomaly(deg)": 10.24692904853284,
        "RAAN(deg)": 120.00688606208458,
        "Satellite Name": "Starlink Shell 3 1869",
        "Satellite Number": 1869,
        "Semi-Major Axis(m)": 6938478.169268562,
        "Time(s)": 660
    },
    {
        "Altitude(m)": 565682.9434481309,
        "Argument of Periapsis(deg)": -0.026568627587002652,
        "Eccentricity": 0.0,
        "Inclination(deg)": 97.0,
        "Latitude(deg)": 10.711147345120487,
        "Longitude(deg)": 15.914841134243819,
        "Mean Anomaly(deg)": 10.872405246237962,
        "RAAN(deg)": 120.00699039635857,
        "Satellite Name": "Starlink Shell 3 1869",
        "Satellite Number": 1869,
        "Semi-Major Axis(m)": 6938478.169268562,
        "Time(s)": 670
    },
    {
        "Altitude(m)": 565677.4080315823,
        "Argument of Periapsis(deg)": -0.02696517426740568,
        "Eccentricity": 0.0,
        "Inclination(deg)": 97.0,
        "Latitude(deg)": 11.33533153106603,
        "Longitude(deg)": 15.794026762104988,
        "Mean Anomaly(deg)": 11.497881443942957,
        "RAAN(deg)": 120.0070947306326,
        "Satellite Name": "Starlink Shell 3 1869",
        "Satellite Number": 1869,
        "Semi-Major Axis(m)": 6938478.169268562,
        "Time(s)": 680
    },
    {
        "Altitude(m)": 565676.0095348288,
        "Argument of Periapsis(deg)": -0.0273617209478087,
        "Eccentricity": 0.0,
        "Inclination(deg)": 97.0,
        "Latitude(deg)": 11.959475490815478,
        "Longitude(deg)": 15.672868238833761,
        "Mean Anomaly(deg)": 12.123357641648052,
        "RAAN(deg)": 120.0071990649066,
        "Satellite Name": "Starlink Shell 3 1869",
        "Satellite Number": 1869,
        "Semi-Major Axis(m)": 6938478.169268562,
        "Time(s)": 690
    },
    {
        "Altitude(m)": 565678.7199529615,
        "Argument of Periapsis(deg)": -0.027758267628211725,
        "Eccentricity": 0.0,
        "Inclination(deg)": 97.0,
        "Latitude(deg)": 12.583576160363931,
        "Longitude(deg)": 15.551344900821864,
        "Mean Anomaly(deg)": 12.748833839353074,
        "RAAN(deg)": 120.00730339918061,
        "Satellite Name": "Starlink Shell 3 1869",
        "Satellite Number": 1869,
        "Semi-Major Axis(m)": 6938478.169268562,
        "Time(s)": 700
    },
    {
        "Altitude(m)": 565685.5093606638,
        "Argument of Periapsis(deg)": -0.028154814308614752,
        "Eccentricity": 0.0,
        "Inclination(deg)": 97.0,
        "Latitude(deg)": 13.20763046903579,
        "Longitude(deg)": 15.429435217146121,
        "Mean Anomaly(deg)": 13.37431003705807,
        "RAAN(deg)": 120.00740773345464,
        "Satellite Name": "Starlink Shell 3 1869",
        "Satellite Number": 1869,
        "Semi-Major Axis(m)": 6938478.169268562,
        "Time(s)": 710
    },
    {
        "Altitude(m)": 565696.3459306813,
        "Argument of Periapsis(deg)": -0.02855136098901778,
        "Eccentricity": 0.0,
        "Inclination(deg)": 97.0,
        "Latitude(deg)": 13.83163533888339,
        "Longitude(deg)": 15.30711727004284,
        "Mean Anomaly(deg)": 13.999786234763166,
        "RAAN(deg)": 120.00751206772864,
        "Satellite Name": "Starlink Shell 3 1869",
        "Satellite Number": 1869,
        "Semi-Major Axis(m)": 6938478.169268562,
        "Time(s)": 720
    },
    {
        "Altitude(m)": 565711.19595325,
        "Argument of Periapsis(deg)": -0.028947907669420805,
        "Eccentricity": 0.0,
        "Inclination(deg)": 97.0,
        "Latitude(deg)": 14.455587684024087,
        "Longitude(deg)": 15.18436923454805,
        "Mean Anomaly(deg)": 14.625262432468187,
        "RAAN(deg)": 120.00761640200265,
        "Satellite Name": "Starlink Shell 3 1869",
        "Satellite Number": 1869,
        "Semi-Major Axis(m)": 6938478.169268562,
        "Time(s)": 730
    },
    {
        "Altitude(m)": 565730.0238564366,
        "Argument of Periapsis(deg)": -0.029344454349823825,
        "Eccentricity": 0.0,
        "Inclination(deg)": 97.0,
        "Latitude(deg)": 15.0794844099098,
        "Longitude(deg)": 15.061168344369385,
        "Mean Anomaly(deg)": 15.250738630173283,
        "RAAN(deg)": 120.00772073627665,
        "Satellite Name": "Starlink Shell 3 1869",
        "Satellite Number": 1869,
        "Semi-Major Axis(m)": 6938478.169268562,
        "Time(s)": 740
    },
    {
        "Altitude(m)": 565752.7922274363,
        "Argument of Periapsis(deg)": -0.029741001030226845,
        "Eccentricity": 0.0,
        "Inclination(deg)": 97.0,
        "Latitude(deg)": 15.703322412527474,
        "Longitude(deg)": 14.937491369671957,
        "Mean Anomaly(deg)": 15.876214827878304,
        "RAAN(deg)": 120.00782507055068,
        "Satellite Name": "Starlink Shell 3 1869",
        "Satellite Number": 1869,
        "Semi-Major Axis(m)": 6938478.169268562,
        "Time(s)": 750
    }
]